BEIDOU-2 IGSO-1 (C06)   
1 36828U 10036A   24186.92005593 -.00000088  00000+0  00000+0 0  9996
2 36828  54.2565 169.4028 0041988 207.3872 345.7842  1.00277381 51069
BEIDOU-2 G4 (C04)       
1 37210U 10057A   24187.56489404 -.00000117  00000+0  00000+0 0  9996
2 37210   1.8886  69.0655 0004143 157.1949  61.1360  1.00270491 50146
BEIDOU-2 IGSO-2 (C07)   
1 37256U 10068A   24177.03205666 -.00000185  00000+0  00000+0 0  9990
2 37256  48.8639 280.7291 0036230 210.2706 258.3565  1.00247372 49557
BEIDOU-2 IGSO-3 (C08)   
1 37384U 11013A   24187.58429057 -.00000178  00000+0  00000+0 0  9998
2 37384  61.3775  46.9313 0026958 173.6162  19.2096  1.00254180 48525
BEIDOU-2 IGSO-4 (C09)   
1 37763U 11038A   24186.92171670 -.00000013  00000+0  00000+0 0  9996
2 37763  54.5619 172.0159 0126256 229.1296 307.4791  1.00255841 47497
BEIDOU-2 IGSO-5 (C10)   
1 37948U 11073A   24187.62994427 -.00000190  00000+0  00000+0 0  9997
2 37948  48.9759 280.2852 0101630 220.1749 104.9577  1.00289762 45993
BEIDOU-2 G5 (C05)       
1 38091U 12008A   24187.15813227  .00000051  00000+0  00000+0 0  9997
2 38091   2.1192  71.0230 0004883 263.9440  64.3364  1.00276139 45220
BEIDOU-2 M3 (C11)       
1 38250U 12018A   24186.65229273 -.00000112  00000+0  00000+0 0  9990
2 38250  56.3269 328.7614 0021416 261.2511  98.4900  1.86231261 82677
BEIDOU-2 M4 (C12)       
1 38251U 12018B   24186.58242167 -.00000111  00000+0  00000+0 0  9999
2 38251  56.2338 328.0340 0012305 261.6273  98.2171  1.86231965 82678
BEIDOU-2 M6 (C14)       
1 38775U 12050B   24183.07025974 -.00000068  00000+0  00000+0 0  9993
2 38775  55.9229  86.6988 0013569 341.8673  18.0990  1.86231092 79976
BEIDOU-2 G6 (C02)       
1 38953U 12059A   24187.06209988 -.00000180  00000+0  00000+0 0  9997
2 38953   2.6049  80.3962 0008878 318.6750 350.8344  1.00269286 42760
BEIDOU-3S IGSO-1S (C31) 
1 40549U 15019A   24186.80417807 -.00000183  00000+0  00000+0 0  9995
2 40549  50.5395 303.9840 0035716 193.1603 167.0146  1.00301167 33935
BEIDOU-3S M2S (C58)     
1 40748U 15037A   24186.24554330 -.00000112  00000+0  00000+0 0  9999
2 40748  55.4655 326.4554 0009126 245.4784 114.4109  1.86233196 60843
BEIDOU-3S M1S (C57)     
1 40749U 15037B   24187.59019290 -.00000110  00000+0  00000+0 0  9998
2 40749  55.4670 326.3960 0002626 348.4370  11.5426  1.86227603 60872
BEIDOU-3S IGSO-2S (C56) 
1 40938U 15053A   24187.57356201 -.00000111  00000+0  00000+0 0  9991
2 40938  50.3271 267.1906 0053474 190.6819 127.1762  1.00258319 32215
BEIDOU-2 IGSO-6 (C13)   
1 41434U 16021A   24187.06471056 -.00000161  00000+0  00000+0 0  9994
2 41434  59.2033  45.1642 0047766 222.1057 134.9324  1.00267650 30333
BEIDOU-2 G7 (C03)       
1 41586U 16037A   24187.56924457 -.00000358  00000+0  00000+0 0  9990
2 41586   1.9508  69.8811 0008536   8.4112 161.0710  1.00265198 29650
BEIDOU-3 M1 (C19)       
1 43001U 17069A   24186.59496484 -.00000069  00000+0  00000+0 0  9995
2 43001  56.0759  86.6792 0010018 311.3843  48.5534  1.86231498 45339
BEIDOU-3 M2 (C20)       
1 43002U 17069B   24186.53224648 -.00000069  00000+0  00000+0 0  9991
2 43002  56.0751  86.7178 0008463 336.1206  23.8635  1.86231003 45329
BEIDOU-3 M7 (C27)       
1 43107U 18003A   24186.81809550 -.00000112  00000+0  00000+0 0  9997
2 43107  54.9231 327.0191 0004447  81.4870 278.5484  1.86232519 44082
BEIDOU-3 M8 (C28)       
1 43108U 18003B   24185.68476577 -.00000112  00000+0  00000+0 0  9991
2 43108  54.9171 327.0436 0002973 247.6669 112.2864  1.86230918 44078
BEIDOU-3 M4 (C22)       
1 43207U 18018A   24181.29350937 -.00000047  00000+0  00000+0 0  9998
2 43207  56.0307  86.9448 0006708   1.9650 358.0567  1.86231207 43371
BEIDOU-3 M3 (C21)       
1 43208U 18018B   24187.26661061 -.00000064  00000+0  00000+0 0  9994
2 43208  56.0348  86.7496 0008075 326.0726  33.9033  1.86231326 43483
BEIDOU-3 M9 (C29)       
1 43245U 18029A   24187.48761941 -.00000110  00000+0  00000+0 0  9991
2 43245  54.8050 324.7018 0000835 174.4290 185.5585  1.86232731 42646
BEIDOU-3 M10 (C30)      
1 43246U 18029B   24186.88031450 -.00000111  00000+0  00000+0 0  9991
2 43246  54.8031 324.7511 0003192  20.7664 339.2320  1.86232997 42617
BEIDOU-2 IGSO-7 (C16)   
1 43539U 18057A   24186.92005612 -.00000085  00000+0  00000+0 0  9993
2 43539  55.1456 169.2133 0075648 233.7182 320.7810  1.00247731 21989
BEIDOU-3 M5 (C23)       
1 43581U 18062A   24185.49276750  .00000094  00000+0  00000+0 0  9999
2 43581  54.1323 206.5782 0005582 275.0553  84.9419  1.86228661 40344
BEIDOU-3 M6 (C24)       
1 43582U 18062B   24185.89551434  .00000089  00000+0  00000+0 0  9993
2 43582  54.1318 206.5538 0004293 354.2922   5.7626  1.86229555 40351
BEIDOU-3 M12 (C26)      
1 43602U 18067A   24185.82867086  .00000090  00000+0  00000+0 0  9999
2 43602  54.2223 205.2391 0006685  16.8968 343.1829  1.86231627 39839
BEIDOU-3 M11 (C25)      
1 43603U 18067B   24185.96262447  .00000088  00000+0  00000+0 0  9992
2 43603  54.2195 205.1996 0003727 358.0826   1.9728  1.86231521 39869
BEIDOU-3 M13 (C32)      
1 43622U 18072A   24185.38683426 -.00000075  00000+0  00000+0 0  9996
2 43622  56.0048  86.3392 0006671 311.8663  48.0953  1.86231557 39369
BEIDOU-3 M14 (C33)      
1 43623U 18072B   24186.32620124 -.00000071  00000+0  00000+0 0  9994
2 43623  56.0074  86.3011 0005220 343.2311  16.7746  1.86231599 39374
BEIDOU-3 M16 (C35)      
1 43647U 18078A   24186.48876355 -.00000111  00000+0  00000+0 0  9997
2 43647  54.7025 324.8339 0006678  23.9640 336.0520  1.86232226 38880
BEIDOU-3 M15 (C34)      
1 43648U 18078B   24186.61793298 -.00000111  00000+0  00000+0 0  9997
2 43648  54.6980 324.8322 0003733  41.2732 318.7402  1.86232323 38903
BEIDOU-3 G1 (C59)       
1 43683U 18085A   24187.54283376 -.00000285  00000+0  00000+0 0  9990
2 43683   2.2366 108.8944 0003671   1.7351 148.7602  1.00267376 20926
BEIDOU-3 M17 (C36)      
1 43706U 18093A   24186.76850206  .00000077  00000+0  00000+0 0  9998
2 43706  54.2151 206.4744 0010431 280.1146  79.8233  1.86228385 38273
BEIDOU-3 M18 (C37)      
1 43707U 18093B   24187.17065432  .00000071  00000+0  00000+0 0  9998
2 43707  54.2158 206.4524 0008292 304.1856  55.7893  1.86229875 38274
BEIDOU-3 IGSO-1 (C38)   
1 44204U 19023A   24187.58274444 -.00000220  00000+0  00000+0 0  9992
2 44204  57.6695  45.0285 0022297 206.0213   0.1316  1.00295895    71
BEIDOU-2 G8 (C01)       
1 44231U 19027A   24187.54401536 -.00000252  00000+0  00000+0 0  9991
2 44231   1.5211  73.8421 0001581 198.5381 351.9857  1.00274732 18947
BEIDOU-3 IGSO-2 (C39)   
1 44337U 19035A   24186.88457779 -.00000103  00000+0  00000+0 0  9998
2 44337  55.1824 165.1130 0035410 205.3641 348.6707  1.00291903 18525
BEIDOU-3 M24 (C46)      
1 44542U 19061A   24186.16625496  .00000086  00000+0  00000+0 0  9998
2 44542  54.4425 206.7847 0007793 341.7523  18.2790  1.86229122 32511
BEIDOU-3 M23 (C45)      
1 44543U 19061B   24185.76040660  .00000092  00000+0  00000+0 0  9995
2 44543  54.4410 206.7671 0005497 319.5105  40.7290  1.86231621 32511
BEIDOU-3 IGSO-3 (C40)   
1 44709U 19073A   24175.72519622 -.00000189  00000+0  00000+0 0  9994
2 44709  56.0384 288.6583 0039278 182.0502 177.9480  1.00247548 17183
BEIDOU-3 M22 (C44)      
1 44793U 19078A   24186.01203673 -.00000112  00000+0  00000+0 0  9998
2 44793  54.5506 324.7804 0005679  33.5021 326.5187  1.86232212 31365
BEIDOU-3 M21 (C43)      
1 44794U 19078B   24186.67873124 -.00000111  00000+0  00000+0 0  9994
2 44794  54.5237 324.7329 0003455  31.7968 328.2095  1.86232684 31381
BEIDOU-3 M19 (C41)      
1 44864U 19090A   24186.67888961 -.00000069  00000+0  00000+0 0  9993
2 44864  55.9403  86.4658 0017219 285.6635 267.2122  1.86231768 30968
BEIDOU-3 M20 (C42)      
1 44865U 19090B   24186.52928834 -.00000070  00000+0  00000+0 0  9994
2 44865  55.9417  86.5041 0015311 299.6938 242.6091  1.86231678 30943
BEIDOU-3 G2 (C60)       
1 45344U 20017A   24187.20417522 -.00000146  00000+0  00000+0 0  9995
2 45344   2.3373  30.3563 0001642 135.2966 271.5777  1.00272195 16128
BEIDOU-3 G3 (C61)       
1 45807U 20040A   24187.56924457 -.00000358  00000+0  00000+0 0  9999
2 45807   0.8080  44.6391 0004434  14.8531 180.0390  1.00269109 14932
BEIDOU-3 G4             
1 56564U 23066A   24187.56465267 -.00000112  00000+0  00000+0 0  9999
2 56564   2.0773 288.2100 0005727 206.0151 152.9982  1.00273165  4278
BEIDOU-3 M25            
1 58654U 23207A   24187.29849946 -.00000065  00000+0  00000+0 0  9995
2 58654  55.1237  86.4489 0002475 315.4485  44.5588  1.86232488  3582
BEIDOU-3 M26            
1 58655U 23207B   24186.56054322 -.00000071  00000+0  00000+0 0  9998
2 58655  55.1251  86.4595 0002773 283.3830  76.6090  1.86232023  3551
